{
  "type": "FeatureCollection",
  "features": [
    {
      "type": "Feature",
      "properties": {
        "norad_id": 34571,
        "name": "COSMOS 2251 DEB",
        "group": "cosmos-2251-debris",
        "lat": 1.6656825599795944,
        "lon": 176.49635408082952,
        "alt_km": 772.7942125537875,
        "timestamp": "2025-12-16T03:53:27.449896+00:00",
        "meta_object_name": "COSMOS 2251 DEB",
        "meta_object_id": "1993-036VH",
        "meta_epoch": "2025-12-14T23:42:40.133664",
        "meta_mean_motion": 14.48849541,
        "meta_eccentricity": 0.00655811,
        "meta_inclination": 74.0396,
        "meta_ra_of_asc_node": 178.2191,
        "meta_arg_of_pericenter": 212.5153,
        "meta_mean_anomaly": 147.196,
        "meta_ephemeris_type": 0,
        "meta_classification_type": "U",
        "meta_norad_cat_id": 34571,
        "meta_element_set_no": 999,
        "meta_rev_at_epoch": 87326,
        "meta_bstar": 0.0014357818,
        "meta_mean_motion_dot": 5.554e-05,
        "meta_mean_motion_ddot": 0,
        "tle_line1": "1 34571U 93036VH  25348.98796451  .00005554  00000+0  14358-2 0  9993",
        "tle_line2": "2 34571  74.0396 178.2191 0065581 212.5153 147.1960 14.48849541873266"
      },
      "geometry": {
        "type": "Point",
        "coordinates": [
          176.49635408082952,
          1.6656825599795944
        ]
      }
    },
    {
      "type": "Feature",
      "properties": {
        "norad_id": 34572,
        "name": "COSMOS 2251 DEB",
        "group": "cosmos-2251-debris",
        "lat": -56.00627267240917,
        "lon": -45.76735945085016,
        "alt_km": 707.8403132302301,
        "timestamp": "2025-12-16T03:53:27.449906+00:00",
        "meta_object_name": "COSMOS 2251 DEB",
        "meta_object_id": "1993-036VJ",
        "meta_epoch": "2025-12-15T08:51:55.988928",
        "meta_mean_motion": 14.50074687,
        "meta_eccentricity": 0.00624835,
        "meta_inclination": 74.0104,
        "meta_ra_of_asc_node": 110.5596,
        "meta_arg_of_pericenter": 184.0036,
        "meta_mean_anomaly": 238.3599,
        "meta_ephemeris_type": 0,
        "meta_classification_type": "U",
        "meta_norad_cat_id": 34572,
        "meta_element_set_no": 999,
        "meta_rev_at_epoch": 87416,
        "meta_bstar": 0.0017600685,
        "meta_mean_motion_dot": 6.978e-05,
        "meta_mean_motion_ddot": 0,
        "tle_line1": "1 34572U 93036VJ  25349.36939802  .00006978  00000+0  17601-2 0  9991",
        "tle_line2": "2 34572  74.0104 110.5596 0062483 184.0036 238.3599 14.50074687874168"
      },
      "geometry": {
        "type": "Point",
        "coordinates": [
          -45.76735945085016,
          -56.00627267240917
        ]
      }
    },
    {
      "type": "Feature",
      "properties": {
        "norad_id": 34574,
        "name": "COSMOS 2251 DEB",
        "group": "cosmos-2251-debris",
        "lat": 18.1291695854943,
        "lon": 41.87058895585966,
        "alt_km": 621.5185351196806,
        "timestamp": "2025-12-16T03:53:27.449916+00:00",
        "meta_object_name": "COSMOS 2251 DEB",
        "meta_object_id": "1993-036VL",
        "meta_epoch": "2025-12-15T05:17:02.332896",
        "meta_mean_motion": 14.70636985,
        "meta_eccentricity": 0.00669519,
        "meta_inclination": 74.0697,
        "meta_ra_of_asc_node": 38.3284,
        "meta_arg_of_pericenter": 58.5206,
        "meta_mean_anomaly": 15.9984,
        "meta_ephemeris_type": 0,
        "meta_classification_type": "U",
        "meta_norad_cat_id": 34574,
        "meta_element_set_no": 999,
        "meta_rev_at_epoch": 88815,
        "meta_bstar": 0.00056581766,
        "meta_mean_motion_dot": 3.533e-05,
        "meta_mean_motion_ddot": 0,
        "tle_line1": "1 34574U 93036VL  25349.22016589  .00003533  00000+0  56582-3 0  9992",
        "tle_line2": "2 34574  74.0697  38.3284 0066951  58.5206  15.9984 14.70636985888154"
      },
      "geometry": {
        "type": "Point",
        "coordinates": [
          41.87058895585966,
          18.1291695854943
        ]
      }
    },
    {
      "type": "Feature",
      "properties": {
        "norad_id": 34576,
        "name": "COSMOS 2251 DEB",
        "group": "cosmos-2251-debris",
        "lat": 17.15669401105652,
        "lon": -53.357399483609505,
        "alt_km": 709.6065639685548,
        "timestamp": "2025-12-16T03:53:27.449927+00:00",
        "meta_object_name": "COSMOS 2251 DEB",
        "meta_object_id": "1993-036VN",
        "meta_epoch": "2025-12-14T20:32:31.564032",
        "meta_mean_motion": 14.55442417,
        "meta_eccentricity": 0.0008143,
        "meta_inclination": 74.0334,
        "meta_ra_of_asc_node": 134.1872,
        "meta_arg_of_pericenter": 270.3947,
        "meta_mean_anomaly": 250.5346,
        "meta_ephemeris_type": 0,
        "meta_classification_type": "U",
        "meta_norad_cat_id": 34576,
        "meta_element_set_no": 999,
        "meta_rev_at_epoch": 88497,
        "meta_bstar": 0.00066330986,
        "meta_mean_motion_dot": 2.858e-05,
        "meta_mean_motion_ddot": 0,
        "tle_line1": "1 34576U 93036VN  25348.85592088  .00002858  00000+0  66331-3 0  9997",
        "tle_line2": "2 34576  74.0334 134.1872 0008143 270.3947 250.5346 14.55442417884970"
      },
      "geometry": {
        "type": "Point",
        "coordinates": [
          -53.357399483609505,
          17.15669401105652
        ]
      }
    },
    {
      "type": "Feature",
      "properties": {
        "norad_id": 34579,
        "name": "COSMOS 2251 DEB",
        "group": "cosmos-2251-debris",
        "lat": -68.5446902886984,
        "lon": 84.2027965607689,
        "alt_km": 730.9130108845984,
        "timestamp": "2025-12-16T03:53:27.449937+00:00",
        "meta_object_name": "COSMOS 2251 DEB",
        "meta_object_id": "1993-036VR",
        "meta_epoch": "2025-12-15T02:29:49.735968",
        "meta_mean_motion": 14.4531603,
        "meta_eccentricity": 0.00275532,
        "meta_inclination": 74.053,
        "meta_ra_of_asc_node": 219.4912,
        "meta_arg_of_pericenter": 287.8026,
        "meta_mean_anomaly": 224.7094,
        "meta_ephemeris_type": 0,
        "meta_classification_type": "U",
        "meta_norad_cat_id": 34579,
        "meta_element_set_no": 999,
        "meta_rev_at_epoch": 88208,
        "meta_bstar": 0.00034285075,
        "meta_mean_motion_dot": 1.183e-05,
        "meta_mean_motion_ddot": 0,
        "tle_line1": "1 34579U 93036VR  25349.10404787  .00001183  00000+0  34285-3 0  9990",
        "tle_line2": "2 34579  74.0530 219.4912 0027553 287.8026 224.7094 14.45316030882083"
      },
      "geometry": {
        "type": "Point",
        "coordinates": [
          84.2027965607689,
          -68.5446902886984
        ]
      }
    },
    {
      "type": "Feature",
      "properties": {
        "norad_id": 34582,
        "name": "COSMOS 2251 DEB",
        "group": "cosmos-2251-debris",
        "lat": 9.821486063199455,
        "lon": 83.16925835108918,
        "alt_km": 779.5189693628972,
        "timestamp": "2025-12-16T03:53:27.449948+00:00",
        "meta_object_name": "COSMOS 2251 DEB",
        "meta_object_id": "1993-036VU",
        "meta_epoch": "2025-12-15T05:29:02.776704",
        "meta_mean_motion": 14.43339775,
        "meta_eccentricity": 0.00479968,
        "meta_inclination": 74.02,
        "meta_ra_of_asc_node": 267.7482,
        "meta_arg_of_pericenter": 17.3138,
        "meta_mean_anomaly": 342.9641,
        "meta_ephemeris_type": 0,
        "meta_classification_type": "U",
        "meta_norad_cat_id": 34582,
        "meta_element_set_no": 999,
        "meta_rev_at_epoch": 87983,
        "meta_bstar": 0.00064372803,
        "meta_mean_motion_dot": 2.174e-05,
        "meta_mean_motion_ddot": 0,
        "tle_line1": "1 34582U 93036VU  25349.22850436  .00002174  00000+0  64373-3 0  9995",
        "tle_line2": "2 34582  74.0200 267.7482 0047996  17.3138 342.9641 14.43339775879831"
      },
      "geometry": {
        "type": "Point",
        "coordinates": [
          83.16925835108918,
          9.821486063199455
        ]
      }
    },
    {
      "type": "Feature",
      "properties": {
        "norad_id": 34588,
        "name": "COSMOS 2251 DEB",
        "group": "cosmos-2251-debris",
        "lat": -26.9146198187742,
        "lon": 90.26551095807685,
        "alt_km": 760.9401621683683,
        "timestamp": "2025-12-16T03:53:27.449958+00:00",
        "meta_object_name": "COSMOS 2251 DEB",
        "meta_object_id": "1993-036WA",
        "meta_epoch": "2025-12-15T04:22:12.717696",
        "meta_mean_motion": 14.42030344,
        "meta_eccentricity": 0.00192217,
        "meta_inclination": 74.0438,
        "meta_ra_of_asc_node": 263.7295,
        "meta_arg_of_pericenter": 316.1357,
        "meta_mean_anomaly": 206.4642,
        "meta_ephemeris_type": 0,
        "meta_classification_type": "U",
        "meta_norad_cat_id": 34588,
        "meta_element_set_no": 999,
        "meta_rev_at_epoch": 87985,
        "meta_bstar": 0.00037866047,
        "meta_mean_motion_dot": 1.219e-05,
        "meta_mean_motion_ddot": 0,
        "tle_line1": "1 34588U 93036WA  25349.18209164  .00001219  00000+0  37866-3 0  9998",
        "tle_line2": "2 34588  74.0438 263.7295 0019221 316.1357 206.4642 14.42030344879857"
      },
      "geometry": {
        "type": "Point",
        "coordinates": [
          90.26551095807685,
          -26.9146198187742
        ]
      }
    }
  ]
}